0 BLOCK DM-SL R/B
1 25662U 99014B   13280.44819502  .00000014  00000-0  11379-2 0  4556
2 25662 000.9323 246.5041 7179456 176.4302 005.2195 02.24273300119055
0 BLOCK DM-SL R/B
1 25662U 99014B   13283.10387612  .00000023  00000-0  97142-3 0  4568
2 25662 000.9227 245.3512 7179902 178.5799 349.3614 02.24273901119119
0 BLOCK DM-SL R/B
1 25662U 99014B   13286.23032037 -.00000057  00000-0  50211-3 0  4578
2 25662 000.9126 243.9699 7180523 181.1347 353.5936 02.24274707119183
0 BLOCK DM-SL R/B
1 25662U 99014B   13288.47606582 -.00000149  00000-0  10211-3 0  4587
2 25662 000.9057 242.9707 7180983 182.9776 006.7681 02.24275317119238
0 BLOCK DM-SL R/B
1 25662U 99014B   13294.25847531 -.00000144  00000-0 -48038-5 0  4598
2 25662 000.8872 240.3374 7182047 187.7850 355.3993 02.24275489119366
